{"type": "FeatureCollection", "features": [ {"type": "Feature", "properties": {"norad_id": 41335, "name": "SENTINEL-3A", "group": "resource", "lat": 21.361649059605757, "lon": -124.88001307342921, "alt_km": 802.2312097742551, "timestamp": "2025-12-12T16:50:32.804869+00:00", "meta": {"OBJECT_NAME": "SENTINEL-3A", "OBJECT_ID": "2016-011A", "EPOCH": "2025-12-12T06:00:15.692832", "MEAN_MOTION": 14.26730438, "ECCENTRICITY": 9.538e-05, "INCLINATION": 98.6316, "RA_OF_ASC_NODE": 51.2687, "ARG_OF_PERICENTER": 90.4124, "MEAN_ANOMALY": 269.7166, "EPHEMERIS_TYPE": 0, "CLASSIFICATION_TYPE": "U", "NORAD_CAT_ID": 41335, "ELEMENT_SET_NO": 999, "REV_AT_EPOCH": 51140, "BSTAR": 0.00013537434, "MEAN_MOTION_DOT": 2.84e-06, "MEAN_MOTION_DDOT": 0}, "tle": {"line1": "1 41335U 16011A   25346.25018163  .00000284  00000+0  13537-3 0  9996", "line2": "2 41335  98.6316  51.2687 0000953  90.4124 269.7166 14.26730438511403"}}, "geometry": {"type": "Point", "coordinates": [-124.88001307342921, 21.361649059605757]}}, {"type": "Feature", "properties": {"norad_id": 41556, "name": "ZIYUAN 3-2 (ZY 3-2)", "group": "resource", "lat": -75.0841731244081, "lon": -148.35214828407248, "alt_km": 500.16760320130015, "timestamp": "2025-12-12T16:50:32.804879+00:00", "meta": {"OBJECT_NAME": "ZIYUAN 3-2 (ZY 3-2)", "OBJECT_ID": "2016-033A", "EPOCH": "2025-12-12T07:49:25.385664", "MEAN_MOTION": 15.21493791, "ECCENTRICITY": 0.00124416, "INCLINATION": 97.4041, "RA_OF_ASC_NODE": 60.4997, "ARG_OF_PERICENTER": 250.5939, "MEAN_ANOMALY": 109.3953, "EPHEMERIS_TYPE": 0, "CLASSIFICATION_TYPE": "U", "NORAD_CAT_ID": 41556, "ELEMENT_SET_NO": 999, "REV_AT_EPOCH": 52957, "BSTAR": 0.00046229916, "MEAN_MOTION_DOT": 0.00010358, "MEAN_MOTION_DDOT": 0}, "tle": {"line1": "1 41556U 16033A   25346.32598826  .00010358  00000+0  46230-3 0  9991", "line2": "2 41556  97.4041  60.4997 0012441 250.5939 109.3953 15.21493791529578"}}, "geometry": {"type": "Point", "coordinates": [-148.35214828407248, -75.0841731244081]}}, {"type": "Feature", "properties": {"norad_id": 41599, "name": "CARTOSAT-2C", "group": "resource", "lat": -21.212350508227882, "lon": -138.9691354570778, "alt_km": 518.7306477225875, "timestamp": "2025-12-12T16:50:32.804890+00:00", "meta": {"OBJECT_NAME": "CARTOSAT-2C", "OBJECT_ID": "2016-040A", "EPOCH": "2025-12-12T06:28:33.338784", "MEAN_MOTION": 15.19288437, "ECCENTRICITY": 0.00109094, "INCLINATION": 97.4765, "RA_OF_ASC_NODE": 43.525, "ARG_OF_PERICENTER": 67.0016, "MEAN_ANOMALY": 293.2368, "EPHEMERIS_TYPE": 0, "CLASSIFICATION_TYPE": "U", "NORAD_CAT_ID": 41599, "ELEMENT_SET_NO": 999, "REV_AT_EPOCH": 52533, "BSTAR": 0.00032307176, "MEAN_MOTION_DOT": 6.759e-05, "MEAN_MOTION_DDOT": 0}, "tle": {"line1": "1 41599U 16040A   25346.26983031  .00006759  00000+0  32307-3 0  9995", "line2": "2 41599  97.4765  43.5250 0010909  67.0016 293.2368 15.19288437525335"}}, "geometry": {"type": "Point", "coordinates": [-138.9691354570778, -21.212350508227882]}}, {"type": "Feature", "properties": {"norad_id": 41601, "name": "SKYSAT-C1", "group": "resource", "lat": -73.09134774241107, "lon": 179.9387026265589, "alt_km": 476.2746177831832, "timestamp": "2025-12-12T16:50:32.804900+00:00", "meta": {"OBJECT_NAME": "SKYSAT-C1", "OBJECT_ID": "2016-040C", "EPOCH": "2025-12-12T01:37:54.884640", "MEAN_MOTION": 15.32569887, "ECCENTRICITY": 0.0002447, "INCLINATION": 96.983, "RA_OF_ASC_NODE": 23.1193, "ARG_OF_PERICENTER": 16.8765, "MEAN_ANOMALY": 343.2559, "EPHEMERIS_TYPE": 0, "CLASSIFICATION_TYPE": "U", "NORAD_CAT_ID": 41601, "ELEMENT_SET_NO": 999, "REV_AT_EPOCH": 52917, "BSTAR": 0.00044349387, "MEAN_MOTION_DOT": 0.00013887, "MEAN_MOTION_DDOT": 0}, "tle": {"line1": "1 41601U 16040C   25346.06799635  .00013887  00000+0  44349-3 0  9991", "line2": "2 41601  96.9830  23.1193 0002447  16.8765 343.2559 15.32569887529177"}}, "geometry": {"type": "Point", "coordinates": [179.9387026265589, -73.09134774241107]}}, {"type": "Feature", "properties": {"norad_id": 41603, "name": "LAPAN-A3", "group": "resource", "lat": 38.10397729261254, "lon": -21.38471455389796, "alt_km": 465.5707624789038, "timestamp": "2025-12-12T16:50:32.804911+00:00", "meta": {"OBJECT_NAME": "LAPAN-A3", "OBJECT_ID": "2016-040E", "EPOCH": "2025-12-12T07:16:01.049088", "MEAN_MOTION": 15.31545408, "ECCENTRICITY": 0.00097005, "INCLINATION": 97.1433, "RA_OF_ASC_NODE": 343.8749, "ARG_OF_PERICENTER": 335.7049, "MEAN_ANOMALY": 24.3734, "EPHEMERIS_TYPE": 0, "CLASSIFICATION_TYPE": "U", "NORAD_CAT_ID": 41603, "ELEMENT_SET_NO": 999, "REV_AT_EPOCH": 52619, "BSTAR": 0.00020920896, "MEAN_MOTION_DOT": 6.307e-05, "MEAN_MOTION_DDOT": 0}, "tle": {"line1": "1 41603U 16040E   25346.30278992  .00006307  00000+0  20921-3 0  9997", "line2": "2 41603  97.1433 343.8749 0009700 335.7049  24.3734 15.31545408526190"}}, "geometry": {"type": "Point", "coordinates": [-21.38471455389796, 38.10397729261254]}}, {"type": "Feature", "properties": {"norad_id": 41604, "name": "BIROS", "group": "resource", "lat": -33.35722300971378, "lon": -166.55362899785575, "alt_km": 308.3766090701329, "timestamp": "2025-12-12T16:50:32.804921+00:00", "meta": {"OBJECT_NAME": "BIROS", "OBJECT_ID": "2016-040F", "EPOCH": "2025-12-12T02:20:56.988384", "MEAN_MOTION": 15.89451278, "ECCENTRICITY": 0.00033015, "INCLINATION": 97.07, "RA_OF_ASC_NODE": 17.5048, "ARG_OF_PERICENTER": 153.1943, "MEAN_ANOMALY": 206.9502, "EPHEMERIS_TYPE": 0, "CLASSIFICATION_TYPE": "U", "NORAD_CAT_ID": 41604, "ELEMENT_SET_NO": 999, "REV_AT_EPOCH": 52862, "BSTAR": 0.0006906007, "MEAN_MOTION_DOT": 0.00199195, "MEAN_MOTION_DDOT": 1.6197971e-05}, "tle": {"line1": "1 41604U 16040F   25346.09788181  .00199195  16198-4  69060-3 0  9995", "line2": "2 41604  97.0700  17.5048 0003301 153.1943 206.9502 15.89451278528625"}}, "geometry": {"type": "Point", "coordinates": [-166.55362899785575, -33.35722300971378]}}, {"type": "Feature", "properties": {"norad_id": 41727, "name": "GAOFEN-3", "group": "resource", "lat": -7.96856542958303, "lon": 171.10263592250237, "alt_km": 755.7473955060586, "timestamp": "2025-12-12T16:50:32.804931+00:00", "meta": {"OBJECT_NAME": "GAOFEN-3", "OBJECT_ID": "2016-049A", "EPOCH": "2025-12-12T07:38:54.621600", "MEAN_MOTION": 14.42213478, "ECCENTRICITY": 0.00014455, "INCLINATION": 98.4043, "RA_OF_ASC_NODE": 351.9112, "ARG_OF_PERICENTER": 62.0255, "MEAN_ANOMALY": 298.1081, "EPHEMERIS_TYPE": 0, "CLASSIFICATION_TYPE": "U", "NORAD_CAT_ID": 41727, "ELEMENT_SET_NO": 999, "REV_AT_EPOCH": 49171, "BSTAR": 6.0767365e-05, "MEAN_MOTION_DOT": 1.57e-06, "MEAN_MOTION_DDOT": 0}, "tle": {"line1": "1 41727U 16049A   25346.31868775  .00000157  00000+0  60767-4 0  9998", "line2": "2 41727  98.4043 351.9112 0001445  62.0255 298.1081 14.42213478491714"}}, "geometry": {"type": "Point", "coordinates": [171.10263592250237, -7.96856542958303]}}, {"type": "Feature", "properties": {"norad_id": 41771, "name": "SKYSAT-C4", "group": "resource", "lat": -8.520147554589235, "lon": -169.1542928895211, "alt_km": 443.11309569869536, "timestamp": "2025-12-12T16:50:32.804941+00:00", "meta": {"OBJECT_NAME": "SKYSAT-C4", "OBJECT_ID": "2016-058B", "EPOCH": "2025-12-12T00:27:20.747232", "MEAN_MOTION": 15.42215688, "ECCENTRICITY": 0.0001466, "INCLINATION": 96.9379, "RA_OF_ASC_NODE": 11.2413, "ARG_OF_PERICENTER": 133.9929, "MEAN_ANOMALY": 226.1441, "EPHEMERIS_TYPE": 0, "CLASSIFICATION_TYPE": "U", "NORAD_CAT_ID": 41771, "ELEMENT_SET_NO": 999, "REV_AT_EPOCH": 51656, "BSTAR": 0.00046677, "MEAN_MOTION_DOT": 0.00019985, "MEAN_MOTION_DDOT": 0}, "tle": {"line1": "1 41771U 16058B   25346.01899013  .00019985  00000+0  46677-3 0  9995", "line2": "2 41771  96.9379  11.2413 0001466 133.9929 226.1441 15.42215688516565"}}, "geometry": {"type": "Point", "coordinates": [-169.1542928895211, -8.520147554589235]}}, {"type": "Feature", "properties": {"norad_id": 41772, "name": "SKYSAT-C5", "group": "resource", "lat": 75.66924023805515, "lon": -120.45321587523438, "alt_km": 454.23235841122187, "timestamp": "2025-12-12T16:50:32.804951+00:00", "meta": {"OBJECT_NAME": "SKYSAT-C5", "OBJECT_ID": "2016-058C", "EPOCH": "2025-12-11T13:47:56.889600", "MEAN_MOTION": 15.34906129, "ECCENTRICITY": 4.67e-05, "INCLINATION": 97.0751, "RA_OF_ASC_NODE": 29.3759, "ARG_OF_PERICENTER": 257.3192, "MEAN_ANOMALY": 102.8, "EPHEMERIS_TYPE": 0, "CLASSIFICATION_TYPE": "U", "NORAD_CAT_ID": 41772, "ELEMENT_SET_NO": 999, "REV_AT_EPOCH": 51498, "BSTAR": 0.00046261, "MEAN_MOTION_DOT": 0.00015598, "MEAN_MOTION_DDOT": 0}, "tle": {"line1": "1 41772U 16058C   25345.57496400  .00015598  00000+0  46261-3 0  9994", "line2": "2 41772  97.0751  29.3759 0000467 257.3192 102.8000 15.34906129514981"}}, "geometry": {"type": "Point", "coordinates": [-120.45321587523438, 75.66924023805515]}}, {"type": "Feature", "properties": {"norad_id": 41773, "name": "SKYSAT-C2", "group": "resource", "lat": 65.10592343534167, "lon": -153.33242866604039, "alt_km": 447.37669585372805, "timestamp": "2025-12-12T16:50:32.804962+00:00", "meta": {"OBJECT_NAME": "SKYSAT-C2", "OBJECT_ID": "2016-058D", "EPOCH": "2025-12-12T00:43:35.830848", "MEAN_MOTION": 15.37243964, "ECCENTRICITY": 0.0004321, "INCLINATION": 97.0369, "RA_OF_ASC_NODE": 10.587, "ARG_OF_PERICENTER": 36.2464, "MEAN_ANOMALY": 323.9073, "EPHEMERIS_TYPE": 0, "CLASSIFICATION_TYPE": "U", "NORAD_CAT_ID": 41773, "ELEMENT_SET_NO": 999, "REV_AT_EPOCH": 51625, "BSTAR": 0.00047659, "MEAN_MOTION_DOT": 0.00017332, "MEAN_MOTION_DDOT": 0}, "tle": {"line1": "1 41773U 16058D   25346.03027582  .00017332  00000+0  47659-3 0  9998", "line2": "2 41773  97.0369  10.5870 0004321  36.2464 323.9073 15.37243964516254"}}, "geometry": {"type": "Point", "coordinates": [-153.33242866604039, 65.10592343534167]}}]}